{
  "type": "FeatureCollection",
  "features": [
    {
      "type": "Feature",
      "properties": {
        "norad_id": 31760,
        "name": "FENGYUN 1C DEB",
        "group": "fengyun-1c-debris",
        "lat": -24.67504936324904,
        "lon": 95.75789891914486,
        "alt_km": 831.4795764506307,
        "timestamp": "2025-12-19T08:58:49.622239+00:00",
        "meta_object_name": "FENGYUN 1C DEB",
        "meta_object_id": "1999-025CFK",
        "meta_epoch": "2025-12-18T12:56:59.871840",
        "meta_mean_motion": 14.30198907,
        "meta_eccentricity": 0.00530112,
        "meta_inclination": 99.2543,
        "meta_ra_of_asc_node": 90.5752,
        "meta_arg_of_pericenter": 180.6314,
        "meta_mean_anomaly": 179.4808,
        "meta_ephemeris_type": 0,
        "meta_classification_type": "U",
        "meta_norad_cat_id": 31760,
        "meta_element_set_no": 999,
        "meta_rev_at_epoch": 96215,
        "meta_bstar": 0.00056465796,
        "meta_mean_motion_dot": 1.436e-05,
        "meta_mean_motion_ddot": 0,
        "tle_line1": "1 31760U 99025CFK 25352.53958185  .00001436  00000+0  56466-3 0  9996",
        "tle_line2": "2 31760  99.2543  90.5752 0053011 180.6314 179.4808 14.30198907962154"
      },
      "geometry": {
        "type": "Point",
        "coordinates": [
          95.75789891914486,
          -24.67504936324904
        ]
      }
    },
    {
      "type": "Feature",
      "properties": {
        "norad_id": 31761,
        "name": "FENGYUN 1C DEB",
        "group": "fengyun-1c-debris",
        "lat": -81.34242114831794,
        "lon": -56.78761193740321,
        "alt_km": 577.8949939566564,
        "timestamp": "2025-12-19T08:58:49.622249+00:00",
        "meta_object_name": "FENGYUN 1C DEB",
        "meta_object_id": "1999-025CFL",
        "meta_epoch": "2025-12-17T11:11:51.453600",
        "meta_mean_motion": 14.03524809,
        "meta_eccentricity": 0.04715606,
        "meta_inclination": 98.6341,
        "meta_ra_of_asc_node": 215.1294,
        "meta_arg_of_pericenter": 250.0722,
        "meta_mean_anomaly": 104.9071,
        "meta_ephemeris_type": 0,
        "meta_classification_type": "U",
        "meta_norad_cat_id": 31761,
        "meta_element_set_no": 999,
        "meta_rev_at_epoch": 58177,
        "meta_bstar": 0.001481834,
        "meta_mean_motion_dot": 6.273e-05,
        "meta_mean_motion_ddot": 0,
        "tle_line1": "1 31761U 99025CFL 25351.46656775  .00006273  00000+0  14818-2 0  9996",
        "tle_line2": "2 31761  98.6341 215.1294 0471560 250.0722 104.9071 14.03524809581772"
      },
      "geometry": {
        "type": "Point",
        "coordinates": [
          -56.78761193740321,
          -81.34242114831794
        ]
      }
    },
    {
      "type": "Feature",
      "properties": {
        "norad_id": 31763,
        "name": "FENGYUN 1C DEB",
        "group": "fengyun-1c-debris",
        "lat": 62.99315680318416,
        "lon": -62.038466523979054,
        "alt_km": 864.2660945316156,
        "timestamp": "2025-12-19T08:58:49.622259+00:00",
        "meta_object_name": "FENGYUN 1C DEB",
        "meta_object_id": "1999-025CFN",
        "meta_epoch": "2025-12-18T18:55:36.916608",
        "meta_mean_motion": 13.50342045,
        "meta_eccentricity": 0.05466145,
        "meta_inclination": 98.5209,
        "meta_ra_of_asc_node": 100.3514,
        "meta_arg_of_pericenter": 53.9284,
        "meta_mean_anomaly": 91.2134,
        "meta_ephemeris_type": 0,
        "meta_classification_type": "U",
        "meta_norad_cat_id": 31763,
        "meta_element_set_no": 999,
        "meta_rev_at_epoch": 91087,
        "meta_bstar": 0.00044784287,
        "meta_mean_motion_dot": 6.99e-06,
        "meta_mean_motion_ddot": 0,
        "tle_line1": "1 31763U 99025CFN 25352.78862172  .00000699  00000+0  44784-3 0  9996",
        "tle_line2": "2 31763  98.5209 100.3514 0546614  53.9284  91.2134 13.50342045910878"
      },
      "geometry": {
        "type": "Point",
        "coordinates": [
          -62.038466523979054,
          62.99315680318416
        ]
      }
    },
    {
      "type": "Feature",
      "properties": {
        "norad_id": 31766,
        "name": "FENGYUN 1C DEB",
        "group": "fengyun-1c-debris",
        "lat": -31.66089308536758,
        "lon": -3.4924218508027143,
        "alt_km": 851.2058254570211,
        "timestamp": "2025-12-19T08:58:49.622269+00:00",
        "meta_object_name": "FENGYUN 1C DEB",
        "meta_object_id": "1999-025CFR",
        "meta_epoch": "2025-12-17T05:52:06.498624",
        "meta_mean_motion": 14.05281807,
        "meta_eccentricity": 0.00733682,
        "meta_inclination": 98.8161,
        "meta_ra_of_asc_node": 348.9454,
        "meta_arg_of_pericenter": 278.3877,
        "meta_mean_anomaly": 80.8979,
        "meta_ephemeris_type": 0,
        "meta_classification_type": "U",
        "meta_norad_cat_id": 31766,
        "meta_element_set_no": 999,
        "meta_rev_at_epoch": 64149,
        "meta_bstar": 4.8529148e-05,
        "meta_mean_motion_dot": 3.7e-07,
        "meta_mean_motion_ddot": 0,
        "tle_line1": "1 31766U 99025CFR 25351.24451966  .00000037  00000+0  48529-4 0  9992",
        "tle_line2": "2 31766  98.8161 348.9454 0073368 278.3877  80.8979 14.05281807641495"
      },
      "geometry": {
        "type": "Point",
        "coordinates": [
          -3.4924218508027143,
          -31.66089308536758
        ]
      }
    },
    {
      "type": "Feature",
      "properties": {
        "norad_id": 31767,
        "name": "FENGYUN 1C DEB",
        "group": "fengyun-1c-debris",
        "lat": -66.4273238554349,
        "lon": 43.7336791623404,
        "alt_km": 898.789872448916,
        "timestamp": "2025-12-19T08:58:49.622279+00:00",
        "meta_object_name": "FENGYUN 1C DEB",
        "meta_object_id": "1999-025CFS",
        "meta_epoch": "2025-12-18T13:30:37.305792",
        "meta_mean_motion": 14.04955453,
        "meta_eccentricity": 0.0041637,
        "meta_inclination": 98.8221,
        "meta_ra_of_asc_node": 22.0944,
        "meta_arg_of_pericenter": 54.0228,
        "meta_mean_anomaly": 97.4655,
        "meta_ephemeris_type": 0,
        "meta_classification_type": "U",
        "meta_norad_cat_id": 31767,
        "meta_element_set_no": 999,
        "meta_rev_at_epoch": 94907,
        "meta_bstar": 0.00016478654,
        "meta_mean_motion_dot": 2.24e-06,
        "meta_mean_motion_ddot": 0,
        "tle_line1": "1 31767U 99025CFS 25352.56293178  .00000224  00000+0  16479-3 0  9994",
        "tle_line2": "2 31767  98.8221  22.0944 0041637  54.0228  97.4655 14.04955453949074"
      },
      "geometry": {
        "type": "Point",
        "coordinates": [
          43.7336791623404,
          -66.4273238554349
        ]
      }
    },
    {
      "type": "Feature",
      "properties": {
        "norad_id": 31768,
        "name": "FENGYUN 1C DEB",
        "group": "fengyun-1c-debris",
        "lat": -54.66110723397794,
        "lon": 80.01610354672736,
        "alt_km": 630.069470904572,
        "timestamp": "2025-12-19T08:58:49.622289+00:00",
        "meta_object_name": "FENGYUN 1C DEB",
        "meta_object_id": "1999-025CFT",
        "meta_epoch": "2025-12-17T03:41:39.457824",
        "meta_mean_motion": 14.76295043,
        "meta_eccentricity": 0.0026336,
        "meta_inclination": 99.0434,
        "meta_ra_of_asc_node": 64.5525,
        "meta_arg_of_pericenter": 327.1784,
        "meta_mean_anomaly": 64.0625,
        "meta_ephemeris_type": 0,
        "meta_classification_type": "U",
        "meta_norad_cat_id": 31768,
        "meta_element_set_no": 999,
        "meta_rev_at_epoch": 96938,
        "meta_bstar": 0.0019554055,
        "meta_mean_motion_dot": 0.00013594,
        "meta_mean_motion_ddot": 0,
        "tle_line1": "1 31768U 99025CFT 25351.15392891  .00013594  00000+0  19554-2 0  9991",
        "tle_line2": "2 31768  99.0434  64.5525 0026336 327.1784  64.0625 14.76295043969384"
      },
      "geometry": {
        "type": "Point",
        "coordinates": [
          80.01610354672736,
          -54.66110723397794
        ]
      }
    },
    {
      "type": "Feature",
      "properties": {
        "norad_id": 31772,
        "name": "FENGYUN 1C DEB",
        "group": "fengyun-1c-debris",
        "lat": -48.376917612921396,
        "lon": -79.88133299411041,
        "alt_km": 939.7143131876301,
        "timestamp": "2025-12-19T08:58:49.622299+00:00",
        "meta_object_name": "FENGYUN 1C DEB",
        "meta_object_id": "1999-025CFX",
        "meta_epoch": "2025-12-18T05:59:57.735456",
        "meta_mean_motion": 14.11719194,
        "meta_eccentricity": 0.01363462,
        "meta_inclination": 98.4728,
        "meta_ra_of_asc_node": 269.3992,
        "meta_arg_of_pericenter": 98.3106,
        "meta_mean_anomaly": 263.3552,
        "meta_ephemeris_type": 0,
        "meta_classification_type": "U",
        "meta_norad_cat_id": 31772,
        "meta_element_set_no": 999,
        "meta_rev_at_epoch": 70961,
        "meta_bstar": 0.00077121239,
        "meta_mean_motion_dot": 1.493e-05,
        "meta_mean_motion_ddot": 0,
        "tle_line1": "1 31772U 99025CFX 25352.24997379  .00001493  00000+0  77121-3 0  9999",
        "tle_line2": "2 31772  98.4728 269.3992 0136346  98.3106 263.3552 14.11719194709617"
      },
      "geometry": {
        "type": "Point",
        "coordinates": [
          -79.88133299411041,
          -48.376917612921396
        ]
      }
    }
  ]
}